{
    "links": {
        "self": "http://www.neowsapp.com/rest/v1/neo/3709130?api_key=iIulBulltgU6a56xZRHN4H3l9WmuAYTsLGpBGhQ2"
    },
    "id": "3709130",
    "neo_reference_id": "3709130",
    "name": "(2015 BA511)",
    "designation": "2015 BA511",
    "nasa_jpl_url": "http://ssd.jpl.nasa.gov/sbdb.cgi?sstr=3709130",
    "absolute_magnitude_h": 24.6,
    "estimated_diameter": {
        "kilometers": {
            "estimated_diameter_min": 0.0319561887,
            "estimated_diameter_max": 0.0714562102
        },
        "meters": {
            "estimated_diameter_min": 31.9561886721,
            "estimated_diameter_max": 71.4562101727
        },
        "miles": {
            "estimated_diameter_min": 0.0198566489,
            "estimated_diameter_max": 0.0444008168
        },
        "feet": {
            "estimated_diameter_min": 104.8431420431,
            "estimated_diameter_max": 234.436392583
        }
    },
    "is_potentially_hazardous_asteroid": false,
    "close_approach_data": [
        {
            "close_approach_date": "2015-02-24",
            "close_approach_date_full": "2015-Feb-24 04:07",
            "epoch_date_close_approach": 1424750820000,
            "relative_velocity": {
                "kilometers_per_second": "5.9103592399",
                "kilometers_per_hour": "21277.2932634687",
                "miles_per_hour": "13220.8825836259"
            },
            "miss_distance": {
                "astronomical": "0.0990380314",
                "lunar": "38.5257942146",
                "kilometers": "14815878.546433118",
                "miles": "9206160.0334403084"
            },
            "orbiting_body": "Earth"
        }
    ],
    "orbital_data": {
        "orbit_id": "8",
        "orbit_determination_date": "2017-04-06 08:36:00",
        "first_observation_date": "2015-01-22",
        "last_observation_date": "2015-02-25",
        "data_arc_in_days": 34,
        "observations_used": 18,
        "orbit_uncertainty": "8",
        "minimum_orbit_intersection": ".0946307",
        "jupiter_tisserand_invariant": "3.648",
        "epoch_osculation": "2457050.5",
        "eccentricity": ".4752915648316122",
        "semi_major_axis": "2.041088174209555",
        "inclination": "4.616508233012346",
        "ascending_node_longitude": "124.3709500868968",
        "orbital_period": "1065.101696860258",
        "perihelion_distance": "1.070976181930197",
        "perihelion_argument": "39.68374057253873",
        "aphelion_distance": "3.011200166488913",
        "perihelion_time": "2457084.579795720315",
        "mean_anomaly": "348.4811689855724",
        "mean_motion": ".3379958937829315",
        "equinox": "J2000",
        "orbit_class": {
            "orbit_class_type": "AMO",
            "orbit_class_description": "Near-Earth asteroid orbits similar to that of 1221 Amor",
            "orbit_class_range": "1.017 AU < q (perihelion) < 1.3 AU"
        }
    },
    "is_sentry_object": false
}